{
  "norad_id": 65388,
  "name": "STARLINK-34957",
  "history": [
    {
      "epoch": "2026-03-28T21:30:25.416864Z",
      "apogee_km": 550.9710431125604,
      "perigee_km": 548.0125299629826,
      "latitude_deg": 7.249079496454136e-05,
      "longitude_deg": 171.6050872735681,
      "height_km": 552.3203581424177,
      "semi_major_axis_km": 6927.628786537772,
      "eccentricity": 0.00021353,
      "inclination_deg": 97.6029,
      "raan_deg": 320.521,
      "arg_perigee_deg": 80.9337,
      "mean_anomaly_deg": 279.2132,
      "mean_motion_rev_day": 15.05656314
    },
    {
      "epoch": "2026-03-29T03:53:13.428672Z",
      "apogee_km": 550.8636350383849,
      "perigee_km": 548.113367714338,
      "latitude_deg": -3.10159806848455e-05,
      "longitude_deg": 75.90523443158412,
      "height_km": 552.3771550870049,
      "semi_major_axis_km": 6927.625501376361,
      "eccentricity": 0.0001985,
      "inclination_deg": 97.6031,
      "raan_deg": 320.7832,
      "arg_perigee_deg": 82.7607,
      "mean_anomaly_deg": 277.3845,
      "mean_motion_rev_day": 15.05657385
    },
    {
      "epoch": "2026-03-30T02:13:01.377120Z",
      "apogee_km": 550.738443132831,
      "perigee_km": 548.2431116074222,
      "latitude_deg": -5.989892113632648e-06,
      "longitude_deg": 100.95578651634276,
      "height_km": 552.4308033578111,
      "semi_major_axis_km": 6927.627777370127,
      "eccentricity": 0.0001801,
      "inclination_deg": 97.6034,
      "raan_deg": 321.7006,
      "arg_perigee_deg": 84.3784,
      "mean_anomaly_deg": 275.7648,
      "mean_motion_rev_day": 15.05656643
    },
    {
      "epoch": "2026-03-30T05:24:25.596864Z",
      "apogee_km": 550.8421248248005,
      "perigee_km": 548.1697172915747,
      "latitude_deg": 3.1906572096567015e-05,
      "longitude_deg": 53.10225488862449,
      "height_km": 552.1916450917446,
      "semi_major_axis_km": 6927.642921058187,
      "eccentricity": 0.00019288,
      "inclination_deg": 97.601,
      "raan_deg": 321.829,
      "arg_perigee_deg": 73.6377,
      "mean_anomaly_deg": 286.5062,
      "mean_motion_rev_day": 15.05651706
    },
    {
      "epoch": "2026-03-30T14:58:38.412480Z",
      "apogee_km": 550.9629160688546,
      "perigee_km": 548.1861507320373,
      "latitude_deg": -2.993648300065711e-05,
      "longitude_deg": -90.44877008101554,
      "height_km": 552.5062941623013,
      "semi_major_axis_km": 6927.711533400446,
      "eccentricity": 0.00020041,
      "inclination_deg": 97.6027,
      "raan_deg": 322.2244,
      "arg_perigee_deg": 84.6225,
      "mean_anomaly_deg": 275.523,
      "mean_motion_rev_day": 15.05629338
    },
    {
      "epoch": "2026-03-30T21:21:26.740512Z",
      "apogee_km": 550.9567354640076,
      "perigee_km": 548.1669511398104,
      "latitude_deg": 2.0709178176852505e-05,
      "longitude_deg": 173.84943567152314,
      "height_km": 552.4158239501409,
      "semi_major_axis_km": 6927.698843301909,
      "eccentricity": 0.00020135,
      "inclination_deg": 97.6025,
      "raan_deg": 322.486,
      "arg_perigee_deg": 81.4289,
      "mean_anomaly_deg": 278.7166,
      "mean_motion_rev_day": 15.05633475
    },
    {
      "epoch": "2026-03-31T21:16:57.308160Z",
      "apogee_km": 550.8736163187241,
      "perigee_km": 548.1399680783234,
      "latitude_deg": -6.354057576120484e-05,
      "longitude_deg": 174.972011715085,
      "height_km": 552.3433154008653,
      "semi_major_axis_km": 6927.643792198523,
      "eccentricity": 0.0001973,
      "inclination_deg": 97.6022,
      "raan_deg": 323.4685,
      "arg_perigee_deg": 80.5052,
      "mean_anomaly_deg": 279.6397,
      "mean_motion_rev_day": 15.05651422
    },
    {
      "epoch": "2026-04-01T21:12:26.173728Z",
      "apogee_km": 550.8769842864876,
      "perigee_km": 547.9369346300937,
      "latitude_deg": 2.737202622614613e-05,
      "longitude_deg": 176.10167580172563,
      "height_km": 552.5251824336316,
      "semi_major_axis_km": 6927.54395945829,
      "eccentricity": 0.0002122,
      "inclination_deg": 97.6019,
      "raan_deg": 324.451,
      "arg_perigee_deg": 92.2003,
      "mean_anomaly_deg": 267.9467,
      "mean_motion_rev_day": 15.05683969
    },
    {
      "epoch": "2026-04-02T21:07:55.096320Z",
      "apogee_km": 550.5349113405446,
      "perigee_km": 548.3045151811439,
      "latitude_deg": 6.58709988924681e-05,
      "longitude_deg": 177.23160810534003,
      "height_km": 552.376953149951,
      "semi_major_axis_km": 6927.556713260844,
      "eccentricity": 0.00016098,
      "inclination_deg": 97.6015,
      "raan_deg": 325.434,
      "arg_perigee_deg": 84.5762,
      "mean_anomaly_deg": 275.5649,
      "mean_motion_rev_day": 15.05679811
    },
    {
      "epoch": "2026-04-03T14:40:36.943680Z",
      "apogee_km": 550.8602083639416,
      "perigee_km": 548.0185165400635,
      "latitude_deg": 4.519300323353467e-05,
      "longitude_deg": -85.94509891770092,
      "height_km": 552.8528045868867,
      "semi_major_axis_km": 6927.576362452002,
      "eccentricity": 0.0002051,
      "inclination_deg": 97.6013,
      "raan_deg": 326.1522,
      "arg_perigee_deg": 104.3171,
      "mean_anomaly_deg": 255.8284,
      "mean_motion_rev_day": 15.05673405
    },
    {
      "epoch": "2026-04-04T14:36:07.215840Z",
      "apogee_km": 550.8938213320198,
      "perigee_km": 548.1019844661514,
      "latitude_deg": -3.7684185003356974e-05,
      "longitude_deg": -84.81969046563597,
      "height_km": 552.8843795809532,
      "semi_major_axis_km": 6927.634902899085,
      "eccentricity": 0.0002015,
      "inclination_deg": 97.6026,
      "raan_deg": 327.1363,
      "arg_perigee_deg": 103.438,
      "mean_anomaly_deg": 256.7071,
      "mean_motion_rev_day": 15.0565432
    },
    {
      "epoch": "2026-04-05T14:31:37.850016Z",
      "apogee_km": 550.7786474656232,
      "perigee_km": 548.2805308935649,
      "latitude_deg": -5.262953676232594e-06,
      "longitude_deg": -83.69721069637802,
      "height_km": 552.7781275467995,
      "semi_major_axis_km": 6927.666589179594,
      "eccentricity": 0.0001803,
      "inclination_deg": 97.6027,
      "raan_deg": 328.119,
      "arg_perigee_deg": 98.5735,
      "mean_anomaly_deg": 261.5696,
      "mean_motion_rev_day": 15.0564399
    },
    {
      "epoch": "2026-04-06T04:52:55.992576Z",
      "apogee_km": 550.6564958021299,
      "perigee_km": 548.3624749449637,
      "latitude_deg": -1.4632514273476487e-07,
      "longitude_deg": 60.97695288474724,
      "height_km": 552.6512898629885,
      "semi_major_axis_km": 6927.646485373546,
      "eccentricity": 0.00016557,
      "inclination_deg": 97.6031,
      "raan_deg": 328.7083,
      "arg_perigee_deg": 93.9631,
      "mean_anomaly_deg": 266.1785,
      "mean_motion_rev_day": 15.05650544
    },
    {
      "epoch": "2026-04-07T12:46:56.906976Z",
      "apogee_km": 550.6221496985727,
      "perigee_km": 548.4884204747668,
      "latitude_deg": 2.4684894897074927e-05,
      "longitude_deg": -57.52716082963517,
      "height_km": 552.5467060604128,
      "semi_major_axis_km": 6927.6922850866695,
      "eccentricity": 0.000154,
      "inclination_deg": 97.6037,
      "raan_deg": 330.0181,
      "arg_perigee_deg": 86.1717,
      "mean_anomaly_deg": 273.9686,
      "mean_motion_rev_day": 15.05635613
    },
    {
      "epoch": "2026-04-07T12:46:56.907840Z",
      "apogee_km": 550.6223544614195,
      "perigee_km": 548.4882095770199,
      "latitude_deg": 2.1298419361867262e-05,
      "longitude_deg": -57.527163989886716,
      "height_km": 552.5466891104163,
      "semi_major_axis_km": 6927.692282019219,
      "eccentricity": 0.00015403,
      "inclination_deg": 97.6037,
      "raan_deg": 330.0181,
      "arg_perigee_deg": 86.1717,
      "mean_anomaly_deg": 273.9686,
      "mean_motion_rev_day": 15.05635614
    },
    {
      "epoch": "2026-04-08T14:18:09.452736Z",
      "apogee_km": 550.6705363035717,
      "perigee_km": 548.3704154684265,
      "latitude_deg": -5.7955264003755546e-05,
      "longitude_deg": -80.3293024528363,
      "height_km": 552.4479457373601,
      "semi_major_axis_km": 6927.657475885999,
      "eccentricity": 0.00016601,
      "inclination_deg": 97.6041,
      "raan_deg": 331.0663,
      "arg_perigee_deg": 83.2591,
      "mean_anomaly_deg": 276.8824,
      "mean_motion_rev_day": 15.05646961
    },
    {
      "epoch": "2026-04-09T12:37:56.832672Z",
      "apogee_km": 550.6092433385274,
      "perigee_km": 548.277419798922,
      "latitude_deg": 1.198319939858461e-06,
      "longitude_deg": -55.27668292541977,
      "height_km": 552.2550011232197,
      "semi_major_axis_km": 6927.580331568724,
      "eccentricity": 0.0001683,
      "inclination_deg": 97.6038,
      "raan_deg": 331.9834,
      "arg_perigee_deg": 77.5774,
      "mean_anomaly_deg": 282.5641,
      "mean_motion_rev_day": 15.05672111
    },
    {
      "epoch": "2026-04-10T12:33:25.755264Z",
      "apogee_km": 550.7810610504848,
      "perigee_km": 548.1305640404053,
      "latitude_deg": -8.245367180597541e-05,
      "longitude_deg": -54.14673778685797,
      "height_km": 552.38788298687,
      "semi_major_axis_km": 6927.592812545445,
      "eccentricity": 0.0001913,
      "inclination_deg": 97.6062,
      "raan_deg": 332.9664,
      "arg_perigee_deg": 84.3738,
      "mean_anomaly_deg": 275.7706,
      "mean_motion_rev_day": 15.05668042
    },
    {
      "epoch": "2026-04-11T14:04:37.837056Z",
      "apogee_km": 550.810932879599,
      "perigee_km": 548.2227614023059,
      "latitude_deg": 3.031946481520657e-05,
      "longitude_deg": -76.94736570557535,
      "height_km": 552.5512742910228,
      "semi_major_axis_km": 6927.653847140952,
      "eccentricity": 0.0001868,
      "inclination_deg": 97.6058,
      "raan_deg": 334.0142,
      "arg_perigee_deg": 88.777,
      "mean_anomaly_deg": 271.3671,
      "mean_motion_rev_day": 15.05648144
    }
  ]
}